IRIDIUM 33 DEB          
1 35737U 97051RQ  17345.47486260  .00003725  00000-0  89883-3 0  9990
2 35737  86.4278 238.2790 0050485  90.9530  31.2372 14.52170530453964
